[{"OBJECT_NAME":"OBJECT A","OBJECT_ID":"2023-189A","EPOCH":"2026-03-09T22:59:06.381600","MEAN_MOTION":15.32403275,"ECCENTRICITY":0.00094831,"INCLINATION":97.4458,"RA_OF_ASC_NODE":86.5997,"ARG_OF_PERICENTER":249.5377,"MEAN_ANOMALY":110.4847,"EPHEMERIS_TYPE":0,"CLASSIFICATION_TYPE":"U","NORAD_CAT_ID":58502,"ELEMENT_SET_NO":999,"REV_AT_EPOCH":12601,"BSTAR":0.00019874471,"MEAN_MOTION_DOT":6.146e-5,"MEAN_MOTION_DDOT":0},{"OBJECT_NAME":"STARLINK-31314","OBJECT_ID":"2024-031C","EPOCH":"2026-03-09T20:45:53.244576","MEAN_MOTION":15.30195953,"ECCENTRICITY":5.118e-5,"INCLINATION":53.1592,"RA_OF_ASC_NODE":295.6274,"ARG_OF_PERICENTER":106.017,"MEAN_ANOMALY":254.0888,"EPHEMERIS_TYPE":0,"CLASSIFICATION_TYPE":"U","NORAD_CAT_ID":58967,"ELEMENT_SET_NO":999,"REV_AT_EPOCH":11656,"BSTAR":-8.8718506e-5,"MEAN_MOTION_DOT":-2.985e-5,"MEAN_MOTION_DDOT":0}]
